TRANSIT 16 [?]          
1 02807U 67048A   23028.59461688  .00000125  00000+0  17904-3 0  9995
2 02807  89.6585  28.7255 0018350 270.1603 210.8942 13.50356338741156
TRANSIT 17 [?]          
1 02965U 67092A   23028.76473802  .00000111  00000+0  14725-3 0  9992
2 02965  89.2322 105.9904 0048728  43.7509  70.8163 13.53068223729102
TRANSIT 18 [?]          
1 03133U 68012A   23029.20188855  .00000129  00000+0  18186-3 0  9998
2 03133  90.0099 271.7367 0074135 328.8104 148.0075 13.51196988704083
NNSS 19 [?]             
1 04507U 70067A   23029.10890536  .00000132  00000+0  16953-3 0  9996
2 04507  89.9315 237.7147 0174198  90.7287 271.3827 13.50875948581012
NNSS O-20 [?]           
1 06909U 73081A   23028.90327389  .00000227  00000+0  22493-3 0  9992
2 06909  89.8216 273.1854 0155922 342.4388  17.1418 13.70751249659894
TRANSAT [?]             
1 10457U 77106A   23028.77972362  .00000075  00000+0  10386-3 0  9998
2 10457  89.6742 115.2017 0024148 341.7680 135.1147 13.48707801226034
NOVA I [?]              
1 12458U 81044A   23029.19467354  .00000039  00000+0  69735-4 0  9997
2 12458  89.8821 105.1659 0016338 113.7348 299.4973 13.23089320 13472
NOVA 3 [?]              
1 15362U 84110A   23028.91233902  .00000052  00000+0  10378-3 0  9993
2 15362  90.1008  69.1446 0031217 344.1670 190.6096 13.22855337848310
OSCAR 30 [?]            
1 15935U 85066A   23028.89291381  .00000078  00000+0  12357-3 0  9999
2 15935  90.1778  81.8522 0169512 162.0119  11.2363 13.35789931824499
OSCAR 24 [?]            
1 15936U 85066B   23028.91705311  .00000079  00000+0  12648-3 0  9990
2 15936  90.1746  73.7536 0169867 167.7672   6.0704 13.35648912826417
POLAR BEAR [?]          
1 17070U 86088A   23028.80559053  .00000112  00000+0  10484-3 0  9998
2 17070  89.5721 227.4108 0040583  46.2020 325.0935 13.74907475815645
OSCAR 27 [?]            
1 18361U 87080A   23028.77564288  .00000104  00000+0  15997-3 0  9992
2 18361  90.3348  41.7620 0103902 349.5288  10.3694 13.44599523734598
OSCAR 29 [?]            
1 18362U 87080B   23028.76620916  .00000068  00000+0  10003-3 0  9995
2 18362  90.3361  42.1124 0106310  10.2949 164.5033 13.44184153734161
OSCAR 23 [?]            
1 19070U 88033A   23029.12626446  .00000073  00000+0  13194-3 0  9996
2 19070  90.3279 343.9477 0188550 215.8895 154.8528 13.27549440683662
OSCAR 32 [?]            
1 19071U 88033B   23028.87189260  .00000085  00000+0  15525-3 0  9999
2 19071  90.3280 344.0303 0187166 204.2816 210.4793 13.27728187683460
NOVA 11 [?]             
1 19223U 88052A   23028.91178594  .00000057  00000+0  11508-3 0  9998
2 19223  89.9747  80.3215 0031303  27.5853 145.6037 13.22767781670814
OSCAR 25 [?]            
1 19419U 88074A   23028.91207605  .00000119  00000+0  19064-3 0  9999
2 19419  90.0066  18.0322 0096384 359.2305  56.5194 13.42329050685682
OSCAR 31 [?]            
1 19420U 88074B   23028.91889035  .00000105  00000+0  16544-3 0  9999
2 19420  90.0077  18.2329 0094370 353.3847  34.6971 13.42335592685794
